TRANSPORTER-16 OBJECT AT
1 68457U 26067AT  26157.96210355  .00011933  00000+0  56840-3 0  9995
2 68457  97.4544 116.6433 0003175  64.9371 295.2193 15.19278692 10399
SAL-E                   
1 68458U 26067AU  26157.63477439  .00010190  00000+0  50948-3 0  9995
2 68458  97.4476 116.1049 0007865 106.2809 253.9291 15.17606820 10338
TRANSPORTER-16 OBJECT AV
1 68459U 26067AV  26156.84996419  .00007673  00000+0  38757-3 0  9998
2 68459  97.4530 115.3651 0008176 102.7288 257.4860 15.17332566 10219
COSMO                   
1 68460U 26067AW  26157.43921233  .00014685  00000+0  73162-3 0  9998
2 68460  97.4490 115.9257 0008094 103.0790 257.1348 15.17637806 10308
IRIDE-MS1-EAGLET 2-12   
1 68461U 26067AX  26157.61509822  .00009424  00000+0  46602-3 0  9999
2 68461  97.4546 116.1968 0005980 100.0870 260.1038 15.18026531 10331
IRIDE-MS1-EAGLET 2-15   
1 68462U 26067AY  26157.65583411  .00009256  00000+0  45042-3 0  9990
2 68462  97.4548 116.2967 0004519  77.6173 282.5567 15.18597713 10347
GARAI-B (UNAMUNO)       
1 68463U 26067AZ  26157.62205104  .00008815  00000+0  44028-3 0  9991
2 68463  97.4534 116.1734 0005623 101.6745 258.5120 15.17697828 10338
FGN-100-D3              
1 68464U 26067BA  26157.62281634  .00006216  00000+0  31251-3 0  9991
2 68464  97.4517 116.1551 0004888 110.9470 249.2287 15.17595038 10338
HOTSAT-2                
1 68465U 26067BB  26157.42707687  .00004290  00000+0  21744-3 0  9997
2 68465  97.4525 115.9631 0005143 103.0411 257.1398 15.17481176 10302
TRANSPORTER-16 OBJECT BC
1 68466U 26067BC  26157.64014496  .00009484  00000+0  47646-3 0  9990
2 68466  97.4487 116.1032 0008027 111.5441 248.6649 15.17456752 10181
TRANSPORTER-16 OBJECT BD
1 68467U 26067BD  26157.67803289  .00021328  00000+0  10282-2 0  9996
2 68467  97.4411 116.1455 0008906 108.1499 252.0706 15.18699432 10345
ERMIS-1                 
1 68468U 26067BE  26156.84977913  .00011273  00000+0  56461-3 0  9999
2 68468  97.4546 115.3857 0008981  94.7837 265.4423 15.17511388 10213
LUNA-2                  
1 68470U 26067BG  26157.64504640  .00006855  00000+0  34697-3 0  9991
2 68470  97.4473 116.0925 0008940 102.2416 257.9820 15.17295737 10339
LEMUR-2-DELOITTE-3      
1 68471U 26067BH  26157.61152314  .00005256  00000+0  53076-3 0  9992
2 68471  97.7571 115.9522 0005675  87.6580 272.5288 14.91469426 10153
FLYLAB1                 
1 68472U 26067BJ  26157.62612355  .00003278  00000+0  33823-3 0  9990
2 68472  97.7625 115.9725 0005911  78.2726 281.9155 14.90858744 10151
VIGORIDE-7              
1 68473U 26067BK  26157.60680463  .00010398  00000+0  45487-3 0  9994
2 68473  97.4534 116.3459 0009788 175.2377 184.8954 15.22206077 10322
BLACK KITE-2            
1 68474U 26067BL  26157.15288156  .00003253  00000+0  32210-3 0  9990
2 68474  97.7543 115.6060 0000642 328.1234  31.9946 14.92532156 10089
UNICORN-2S              
1 68475U 26067BM  26157.60374359  .00011408  00000+0  11333-2 0  9995
2 68475  97.7507 115.9178 0005987  87.9339 272.2565 14.91858909  9627
LEMUR-2-JULIA-JOEL      
1 68476U 26067BN  26157.68765070  .00005049  00000+0  49522-3 0  9994
2 68476  97.7557 116.1474 0001090 354.1946   5.9260 14.92662168 10164
TRANSPORTER-16 OBJECT BP
1 68477U 26067BP  26157.60480355  .00007716  00000+0  77035-3 0  9990
2 68477  97.7511 115.9209 0006451  98.9936 261.2013 14.91769919  9551
FOSSASAT-2E25           
1 68478U 26067BQ  26157.90458159  .00001057  00000+0  10943-3 0  9998
2 68478  97.7595 116.3513 0001590  13.3300 346.7961 14.92121140 10194
LEMUR-2-PEGGY-2004      
1 68479U 26067BR  26157.62785542  .00009615  00000+0  93848-3 0  9990
2 68479  97.7545 116.0608 0000955  54.6084 305.5224 14.92622954 10153
LEMUR-2-IRINA           
1 68480U 26067BS  26157.14037335  .00004319  00000+0  42232-3 0  9996
2 68480  97.7621 115.6836 0002816 332.6795  27.4276 14.92862239 10085
TORO3                   
1 68481U 26067BT  26157.70502995  .00000982  00000+0  10210-3 0  9991
2 68481  97.7666 116.2073 0003098  20.4895 339.6448 14.92110488 10161
LEMUR-2-SEJONG-3        
1 68482U 26067BU  26157.60966935  .00004241  00000+0  41470-3 0  9993
2 68482  97.7566 116.1038 0001865 307.7781  52.3269 14.92866142 10150
LEMUR-2-CLARA           
1 68483U 26067BV  26157.62060517  .00004899  00000+0  48068-3 0  9996
2 68483  97.7635 116.1458 0002519   0.4356 359.6865 14.92662914 10152
VINDLER 2.2             
1 68484U 26067BW  26156.85778924  .00004276  00000+0  28390-3 0  9994
2 68484  97.7648 115.7487 0002865  34.6357 325.5057 15.07774489 10061
CAPELLA-20 (ACADIA-10)  
1 68485U 26067BX  26157.63470999  .00009665  00000+0  94716-3 0  9995
2 68485  97.7575 116.0776 0001980  48.9407 311.1983 14.92460194 10154
VINDLER 2.3             
1 68486U 26067BY  26157.91534669  .00002051  00000+0  20808-3 0  9995
2 68486  97.7576 116.3231 0002020  58.0995 302.0420 14.91949248 10195
AE1A                    
1 68487U 26067BZ  26157.62351102  .00005606  00000+0  54996-3 0  9997
2 68487  97.7537 116.0621 0000397  23.7027 336.4210 14.92609100 10158
