OBJECT_NAME,OBJECT_ID,EPOCH,MEAN_MOTION,ECCENTRICITY,INCLINATION,RA_OF_ASC_NODE,ARG_OF_PERICENTER,MEAN_ANOMALY,EPHEMERIS_TYPE,CLASSIFICATION_TYPE,NORAD_CAT_ID,ELEMENT_SET_NO,REV_AT_EPOCH,BSTAR,MEAN_MOTION_DOT,MEAN_MOTION_DDOT
TRANSPORTER-16 OBJECT AT,2026-067AT,2026-06-06T23:05:25.746720,15.19278692,.0003175,97.4544,116.6433,64.9371,295.2193,0,U,68457,999,1039,.56839798E-3,.11933E-3,0
SAL-E,2026-067AU,2026-06-06T15:14:04.507296,15.17606820,.00078653,97.4476,116.1049,106.2809,253.9291,0,U,68458,999,1033,.50948219E-3,.1019E-3,0
TRANSPORTER-16 OBJECT AV,2026-067AV,2026-06-05T20:23:56.906016,15.17332566,.00081769,97.4530,115.3651,102.7288,257.4860,0,U,68459,999,1021,.38757364E-3,.7673E-4,0
COSMO,2026-067AW,2026-06-06T10:32:27.945312,15.17637806,.00080948,97.4490,115.9257,103.0790,257.1348,0,U,68460,999,1030,.73162318E-3,.14685E-3,0
IRIDE-MS1-EAGLET 2-12,2026-067AX,2026-06-06T14:45:44.486208,15.18026531,.000598,97.4546,116.1968,100.0870,260.1038,0,U,68461,999,1033,.46602E-3,.9424E-4,0
IRIDE-MS1-EAGLET 2-15,2026-067AY,2026-06-06T15:44:24.067104,15.18597713,.00045192,97.4548,116.2967,77.6173,282.5567,0,U,68462,999,1034,.45041518E-3,.9256E-4,0
GARAI-B (UNAMUNO),2026-067AZ,2026-06-06T14:55:45.209856,15.17697828,.0005623,97.4534,116.1734,101.6745,258.5120,0,U,68463,999,1033,.44028171E-3,.8815E-4,0
FGN-100-D3,2026-067BA,2026-06-06T14:56:51.331776,15.17595038,.00048889,97.4517,116.1551,110.9470,249.2287,0,U,68464,999,1033,.31251088E-3,.6216E-4,0
HOTSAT-2,2026-067BB,2026-06-06T10:14:59.441568,15.17481176,.00051436,97.4525,115.9631,103.0411,257.1398,0,U,68465,999,1030,.21743807E-3,.429E-4,0
TRANSPORTER-16 OBJECT BC,2026-067BC,2026-06-06T15:21:48.524544,15.17456752,.00080276,97.4487,116.1032,111.5441,248.6649,0,U,68466,999,1018,.47645851E-3,.9484E-4,0
TRANSPORTER-16 OBJECT BD,2026-067BD,2026-06-06T16:16:22.041696,15.18699432,.00089068,97.4411,116.1455,108.1499,252.0706,0,U,68467,999,1034,.10281795E-2,.21328E-3,0
ERMIS-1,2026-067BE,2026-06-05T20:23:40.916832,15.17511388,.0008981,97.4546,115.3857,94.7837,265.4423,0,U,68468,999,1021,.56460988E-3,.11273E-3,0
LUNA-2,2026-067BG,2026-06-06T15:28:52.008960,15.17295737,.00089406,97.4473,116.0925,102.2416,257.9820,0,U,68470,999,1033,.34697161E-3,.6855E-4,0
LEMUR-2-DELOITTE-3,2026-067BH,2026-06-06T14:40:35.599296,14.91469426,.0005675,97.7571,115.9522,87.6580,272.5288,0,U,68471,999,1015,.53076E-3,.5256E-4,0
FLYLAB1,2026-067BJ,2026-06-06T15:01:37.074720,14.90858744,.00059115,97.7625,115.9725,78.2726,281.9155,0,U,68472,999,1015,.33822622E-3,.3278E-4,0
VIGORIDE-7,2026-067BK,2026-06-06T14:33:47.920032,15.22206077,.0009788,97.4534,116.3459,175.2377,184.8954,0,U,68473,999,1032,.45487E-3,.10398E-3,0
BLACK KITE-2,2026-067BL,2026-06-06T03:40:08.966784,14.92532156,.00006421,97.7543,115.6060,328.1234,31.9946,0,U,68474,999,1008,.3221005E-3,.3253E-4,0
UNICORN-2S,2026-067BM,2026-06-06T14:29:23.446176,14.91858909,.0005987,97.7507,115.9178,87.9339,272.2565,0,U,68475,999,962,.11333E-2,.11408E-3,0
LEMUR-2-JULIA-JOEL,2026-067BN,2026-06-06T16:30:13.020480,14.92662168,.00010907,97.7557,116.1474,354.1946,5.9260,0,U,68476,999,1016,.49521871E-3,.5049E-4,0
TRANSPORTER-16 OBJECT BP,2026-067BP,2026-06-06T14:30:55.026720,14.91769919,.0006451,97.7511,115.9209,98.9936,261.2013,0,U,68477,999,955,.77035E-3,.7716E-4,0
FOSSASAT-2E25,2026-067BQ,2026-06-06T21:42:35.849376,14.92121140,.00015906,97.7595,116.3513,13.3300,346.7961,0,U,68478,999,1019,.10942766E-3,.1057E-4,0
LEMUR-2-PEGGY-2004,2026-067BR,2026-06-06T15:04:06.708288,14.92622954,.00009552,97.7545,116.0608,54.6084,305.5224,0,U,68479,999,1015,.93848374E-3,.9615E-4,0
LEMUR-2-IRINA,2026-067BS,2026-06-06T03:22:08.257440,14.92862239,.0002816,97.7621,115.6836,332.6795,27.4276,0,U,68480,999,1008,.42231565E-3,.4319E-4,0
TORO3,2026-067BT,2026-06-06T16:55:14.587680,14.92110488,.00030984,97.7666,116.2073,20.4895,339.6448,0,U,68481,999,1016,.10210447E-3,.982E-5,0
LEMUR-2-SEJONG-3,2026-067BU,2026-06-06T14:37:55.431840,14.92866142,.0001865,97.7566,116.1038,307.7781,52.3269,0,U,68482,999,1015,.4147E-3,.4241E-4,0
LEMUR-2-CLARA,2026-067BV,2026-06-06T14:53:40.286688,14.92662914,.00025193,97.7635,116.1458,0.4356,359.6865,0,U,68483,999,1015,.48068412E-3,.4899E-4,0
VINDLER 2.2,2026-067BW,2026-06-05T20:35:12.990336,15.07774489,.00028656,97.7648,115.7487,34.6357,325.5057,0,U,68484,999,1006,.28389829E-3,.4276E-4,0
CAPELLA-20 (ACADIA-10),2026-067BX,2026-06-06T15:13:58.943136,14.92460194,.000198,97.7575,116.0776,48.9407,311.1983,0,U,68485,999,1015,.94716335E-3,.9665E-4,0
VINDLER 2.3,2026-067BY,2026-06-06T21:58:05.954016,14.91949248,.00020209,97.7576,116.3231,58.0995,302.0420,0,U,68486,999,1019,.20807775E-3,.2051E-4,0
AE1A,2026-067BZ,2026-06-06T14:57:51.352128,14.92609100,.00003974,97.7537,116.0621,23.7027,336.4210,0,U,68487,999,1015,.54995738E-3,.5606E-4,0
